OBJECT_NAME,OBJECT_ID,EPOCH,MEAN_MOTION,ECCENTRICITY,INCLINATION,RA_OF_ASC_NODE,ARG_OF_PERICENTER,MEAN_ANOMALY,EPHEMERIS_TYPE,CLASSIFICATION_TYPE,NORAD_CAT_ID,ELEMENT_SET_NO,REV_AT_EPOCH,BSTAR,MEAN_MOTION_DOT,MEAN_MOTION_DDOT
STAR ONE D2,2021-069A,2026-06-18T19:26:03.034176,1.00270132,.00020325,0.0153,340.0202,132.6885,15.7458,0,U,49055,999,1796,0,0,0
EUTELSAT QUANTUM,2021-069B,2026-06-18T18:17:49.761600,1.00272154,.00021116,0.0145,22.6393,63.8054,142.7031,0,U,49056,999,1794,0,.12E-5,0
ZHONGXING-2E,2021-071A,2026-06-19T22:55:20.116416,1.00273139,.00016448,0.0299,211.6390,280.2302,218.2013,0,U,49062,999,1806,0,-.297E-5,0
TJS-7,2021-077A,2026-06-19T14:18:38.914272,1.00331431,.0008581,0.3481,265.2992,126.0442,351.7261,0,U,49115,999,957,0,-.139E-5,0
CHINASAT 9B,2021-080A,2026-06-19T00:59:38.567904,1.00267643,.00015482,0.0393,263.0538,212.4222,268.0821,0,U,49125,999,1766,0,-.318E-5,0
SHIJIAN-21 (SJ-21),2021-094A,2026-06-19T23:08:32.420832,1.00269516,.00496739,5.1205,61.1704,168.2648,153.9064,0,U,49330,999,538,0,-.354E-5,0
SES-17,2021-095A,2026-06-18T14:18:52.046208,1.00269036,.00008114,0.0267,40.8266,45.0665,328.5524,0,U,49332,999,1786,0,-.278E-5,0
SYRACUSE 4A,2021-095B,2026-06-19T06:14:56.927040,1.00268750,.00016356,0.0178,11.5381,69.1185,326.0593,0,U,49333,999,1796,0,.129E-5,0
QZS-1R (MICHIBIKI-1R),2021-096A,2026-06-19T15:10:55.566912,1.00254705,.07548004,37.4674,79.5460,271.8525,278.0167,0,U,49336,999,1703,0,-.29E-5,0
ZHONGXING-1D,2021-114A,2026-06-19T22:03:01.740096,1.00267567,.00007136,0.0089,167.4208,48.5786,153.0354,0,U,49505,999,1684,0,-.342E-5,0
STPSAT-6,2021-118A,2026-06-19T15:46:05.263104,1.00269485,.00011973,0.3283,85.3538,254.7941,52.6044,0,U,49817,999,1659,0,-.51E-6,0
EXPRESS AMU-7,2021-123A,2026-06-19T22:07:16.333248,1.00272019,.00003529,0.0161,314.4408,2.5766,67.9406,0,U,50001,999,1656,0,-.248E-5,0
EXPRESS AMU-3,2021-123B,2026-06-19T23:15:40.929408,1.00270329,.00002367,0.0233,324.1156,331.6828,64.1991,0,U,50002,999,705,0,0,0
TIANLIAN 2-02,2021-124A,2026-06-19T22:14:38.126688,1.00271134,.00013972,0.8097,86.0655,196.6406,130.0542,0,U,50005,999,1664,0,-.2E-6,0
TURKSAT 5B,2021-126A,2026-06-19T02:48:36.163008,1.00271147,.00032341,0.0673,343.7991,12.4246,355.2631,0,U,50212,999,1631,0,.14E-5,0
INMARSAT 6-F1,2021-128A,2026-06-18T20:09:55.247328,1.00270212,.0000303,0.0186,327.5438,244.7765,80.9907,0,U,50319,999,1627,0,-.178E-5,0
SHIYAN-12 01 (SY-12 01),2021-129A,2026-06-19T18:04:54.026976,1.00040512,.0003241,3.6821,79.8763,287.8280,229.4495,0,U,50321,999,1652,0,.89E-6,0
SHIYAN-12 02 (SY-12 02),2021-129B,2026-06-19T17:50:50.705088,1.00488857,.0002772,3.6816,79.8816,59.0435,127.6608,0,U,50322,999,1652,0,-.283E-5,0
TJS-9,2021-135A,2026-06-19T22:05:01.549248,1.00273662,.00036075,0.0361,238.3857,173.3251,324.8860,0,U,50574,999,1645,0,-.304E-5,0
USA 324,2022-006A,2026-06-06T02:06:38.886912,1.00289779,.000284,0.7690,83.2777,165.6787,110.1567,0,U,51280,999,1602,0,-.58E-6,0
GOES 18,2022-021A,2026-06-19T19:04:00.687360,1.00271801,.0000394,0.0365,172.6511,326.3071,278.0456,0,U,51850,999,661,0,.91E-6,0
ZHONGXING-6D,2022-038A,2026-06-19T21:47:43.701216,1.00268933,.00005954,0.0126,320.9317,140.1454,258.9296,0,U,52255,999,1544,0,0,0
NILESAT 301,2022-061A,2026-06-19T20:28:38.572608,1.00271078,.00046594,0.0501,19.2034,38.1692,150.8532,0,U,52817,999,1476,0,-.64E-6,0
CMS-02 (GSAT-24),2022-067A,2026-06-19T17:08:22.006176,1.00271966,.00017999,0.0510,254.4569,112.1793,241.3997,0,U,52903,999,1463,0,-.171E-5,0
MEASAT 3D,2022-067B,2026-06-19T20:33:21.854880,1.00271656,.00013416,0.0267,349.5815,27.0754,291.2582,0,U,52904,999,1467,0,-.247E-5,0
SES-22,2022-071A,2026-06-19T17:20:54.538944,1.00272377,.00013667,0.0156,11.2094,65.1144,312.8292,0,U,52933,999,754,0,.99E-6,0
WFOV (USA 332),2022-073A,2026-06-19T18:34:33.510144,1.00273900,.00020506,3.7185,78.4974,255.0556,332.3394,0,U,52940,999,1439,0,-.369E-5,0
TIANLIAN 2-03,2022-078A,2026-06-19T18:03:31.611744,1.00271273,.00013849,0.6774,77.0845,332.1489,140.1988,0,U,53100,999,1457,0,.66E-6,0
SBIRS GEO-6 (USA 336),2022-092A,2026-06-19T20:22:49.876032,1.00271021,.0001841,3.2525,317.5522,121.0423,274.1830,0,U,53355,999,1426,0,-.298E-5,0
EUTELSAT KONNECT VHTS,2022-110A,2026-06-19T20:28:14.573280,1.00268826,.0002376,0.0634,99.6675,350.7532,127.3974,0,U,53765,999,686,0,.11E-6,0
ZHONGXING-1E,2022-112A,2026-06-19T18:23:47.387616,1.00272200,.00006694,0.0440,188.6696,128.5084,308.1629,0,U,53813,999,1387,0,-.155E-5,0
